{
  "norad_id": 62310,
  "name": "STARLINK-32696",
  "history": [
    {
      "epoch": "2026-03-28T18:44:37.245696Z",
      "apogee_km": 476.1734709849652,
      "perigee_km": 474.22027083175635,
      "latitude_deg": 1.021746787017369e-05,
      "longitude_deg": -1.8792942259718122,
      "height_km": 476.13753952616287,
      "semi_major_axis_km": 6853.333870908361,
      "eccentricity": 0.0001425,
      "inclination_deg": 53.1602,
      "raan_deg": 105.4724,
      "arg_perigee_deg": 92.5109,
      "mean_anomaly_deg": 267.6055,
      "mean_motion_rev_day": 15.30206095
    },
    {
      "epoch": "2026-03-29T01:00:49.923936Z",
      "apogee_km": 476.29051626755336,
      "perigee_km": 474.07004146919917,
      "latitude_deg": 3.049137096800787e-05,
      "longitude_deg": -97.40281267252908,
      "height_km": 476.1790412822834,
      "semi_major_axis_km": 6853.317278868376,
      "eccentricity": 0.000162,
      "inclination_deg": 53.1602,
      "raan_deg": 104.2592,
      "arg_perigee_deg": 95.2271,
      "mean_anomaly_deg": 264.8915,
      "mean_motion_rev_day": 15.30211652
    },
    {
      "epoch": "2026-03-30T00:31:36.858432Z",
      "apogee_km": 476.0852085256911,
      "perigee_km": 474.1347744319164,
      "latitude_deg": 4.0717843487653465e-05,
      "longitude_deg": -95.61521107249465,
      "height_km": 476.0686377955037,
      "semi_major_axis_km": 6853.2469914788035,
      "eccentricity": 0.0001423,
      "inclination_deg": 53.1597,
      "raan_deg": 99.708,
      "arg_perigee_deg": 93.5747,
      "mean_anomaly_deg": 266.5417,
      "mean_motion_rev_day": 15.30235193
    },
    {
      "epoch": "2026-03-30T06:47:49.876224Z",
      "apogee_km": 476.0542494453557,
      "perigee_km": 474.3309111890885,
      "latitude_deg": -2.8657549017881257e-05,
      "longitude_deg": 168.85878538089304,
      "height_km": 476.160166679227,
      "semi_major_axis_km": 6853.329580317222,
      "eccentricity": 0.00012573,
      "inclination_deg": 53.1605,
      "raan_deg": 98.4938,
      "arg_perigee_deg": 94.6216,
      "mean_anomaly_deg": 265.4928,
      "mean_motion_rev_day": 15.30207532
    },
    {
      "epoch": "2026-03-30T09:55:56.557056Z",
      "apogee_km": 476.20721905265873,
      "perigee_km": 474.38228724543023,
      "latitude_deg": 5.6440168995053176e-05,
      "longitude_deg": 121.09585449104685,
      "height_km": 476.4011024032656,
      "semi_major_axis_km": 6853.431753149044,
      "eccentricity": 0.00013314,
      "inclination_deg": 53.1599,
      "raan_deg": 97.8874,
      "arg_perigee_deg": 103.1988,
      "mean_anomaly_deg": 256.9162,
      "mean_motion_rev_day": 15.30173313
    },
    {
      "epoch": "2026-03-30T17:46:13.015488Z",
      "apogee_km": 476.2262074629989,
      "perigee_km": 474.28587482518924,
      "latitude_deg": -3.57438983575697e-05,
      "longitude_deg": 1.6889180626382188,
      "height_km": 476.2313052322543,
      "semi_major_axis_km": 6853.393041144093,
      "eccentricity": 0.00014156,
      "inclination_deg": 53.1607,
      "raan_deg": 96.371,
      "arg_perigee_deg": 94.5706,
      "mean_anomaly_deg": 265.5456,
      "mean_motion_rev_day": 15.30186278
    },
    {
      "epoch": "2026-03-31T09:26:45.244608Z",
      "apogee_km": 476.18836007489153,
      "perigee_km": 474.2894266823532,
      "latitude_deg": 3.897566872441239e-05,
      "longitude_deg": 122.87661177891363,
      "height_km": 476.24218830782735,
      "semi_major_axis_km": 6853.375893378622,
      "eccentricity": 0.00013854,
      "inclination_deg": 53.1598,
      "raan_deg": 93.3367,
      "arg_perigee_deg": 96.3735,
      "mean_anomaly_deg": 263.7424,
      "mean_motion_rev_day": 15.30192021
    },
    {
      "epoch": "2026-04-01T08:57:32.352768Z",
      "apogee_km": 476.04373917425255,
      "perigee_km": 474.23584475653297,
      "latitude_deg": -3.014369515571579e-05,
      "longitude_deg": 124.66382948015195,
      "height_km": 475.9661183569099,
      "semi_major_axis_km": 6853.2767919653925,
      "eccentricity": 0.0001319,
      "inclination_deg": 53.1593,
      "raan_deg": 88.7859,
      "arg_perigee_deg": 85.4552,
      "mean_anomaly_deg": 274.6599,
      "mean_motion_rev_day": 15.30225212
    },
    {
      "epoch": "2026-04-02T08:28:20.795808Z",
      "apogee_km": 476.00080803167384,
      "perigee_km": 474.4475622526734,
      "latitude_deg": -3.3595162943258766e-05,
      "longitude_deg": 126.44711858609767,
      "height_km": 475.9538224648876,
      "semi_major_axis_km": 6853.361185142173,
      "eccentricity": 0.00011332,
      "inclination_deg": 53.1585,
      "raan_deg": 84.2367,
      "arg_perigee_deg": 77.4687,
      "mean_anomaly_deg": 282.644,
      "mean_motion_rev_day": 15.30196947
    },
    {
      "epoch": "2026-04-03T15:49:25.337856Z",
      "apogee_km": 476.65253571457833,
      "perigee_km": 473.7480913610998,
      "latitude_deg": -3.864547646783749e-05,
      "longitude_deg": 8.820839459511422,
      "height_km": 476.0713527252438,
      "semi_major_axis_km": 6853.337313537839,
      "eccentricity": 0.0002119,
      "inclination_deg": 53.1587,
      "raan_deg": 78.1669,
      "arg_perigee_deg": 88.9863,
      "mean_anomaly_deg": 271.138,
      "mean_motion_rev_day": 15.30204942
    },
    {
      "epoch": "2026-04-04T21:36:25.704864Z",
      "apogee_km": 476.42121520258115,
      "perigee_km": 473.8992018298486,
      "latitude_deg": -5.471207438880457e-05,
      "longitude_deg": -84.9168648171637,
      "height_km": 476.3549161069734,
      "semi_major_axis_km": 6853.297208516215,
      "eccentricity": 0.000184,
      "inclination_deg": 53.1582,
      "raan_deg": 72.4039,
      "arg_perigee_deg": 103.6481,
      "mean_anomaly_deg": 256.4724,
      "mean_motion_rev_day": 15.30218374
    },
    {
      "epoch": "2026-04-05T05:26:41.882496Z",
      "apogee_km": 476.2936484857728,
      "perigee_km": 474.2514695053833,
      "latitude_deg": 2.609147119435753e-05,
      "longitude_deg": 155.6785999660357,
      "height_km": 476.49414463385176,
      "semi_major_axis_km": 6853.409558995578,
      "eccentricity": 0.00014899,
      "inclination_deg": 53.1577,
      "raan_deg": 70.8886,
      "arg_perigee_deg": 108.4986,
      "mean_anomaly_deg": 251.6177,
      "mean_motion_rev_day": 15.30180746
    }
  ]
}